{
  "type": "FeatureCollection",
  "features": [
    {
      "type": "Feature",
      "properties": {
        "norad_id": 66600,
        "name": "STARLINK-35980",
        "group": "last-30-days",
        "lat": 42.145068815134344,
        "lon": -33.35417858321844,
        "alt_km": 370.21303865453774,
        "timestamp": "2025-12-07T14:37:03.994818+00:00",
        "meta_object_name": "STARLINK-35980",
        "meta_object_id": "2025-270N",
        "meta_epoch": "2025-12-06T22:00:01.999584",
        "meta_mean_motion": 15.6715088,
        "meta_eccentricity": 0.00012309,
        "meta_inclination": 42.9986,
        "meta_ra_of_asc_node": 227.015,
        "meta_arg_of_pericenter": 263.6877,
        "meta_mean_anomaly": 249.2451,
        "meta_ephemeris_type": 0,
        "meta_classification_type": "U",
        "meta_norad_cat_id": 66600,
        "meta_element_set_no": 999,
        "meta_rev_at_epoch": 336,
        "meta_bstar": -0.020646369,
        "meta_mean_motion_dot": -0.02002163,
        "meta_mean_motion_ddot": 0,
        "tle_line1": "1 66600U 25270N   25340.91668981 -.02002163  00000+0 -20646-1 0  9990",
        "tle_line2": "2 66600  42.9986 227.0150 0001230 263.6877 249.2451 15.67150880  3360"
      },
      "geometry": {
        "type": "Point",
        "coordinates": [
          -33.35417858321844,
          42.145068815134344
        ]
      }
    },
    {
      "type": "Feature",
      "properties": {
        "norad_id": 66601,
        "name": "STARLINK-35978",
        "group": "last-30-days",
        "lat": 41.805535303846845,
        "lon": -30.818118691720617,
        "alt_km": 370.29183997759264,
        "timestamp": "2025-12-07T14:37:03.994842+00:00",
        "meta_object_name": "STARLINK-35978",
        "meta_object_id": "2025-270P",
        "meta_epoch": "2025-12-06T22:00:01.999584",
        "meta_mean_motion": 15.67149891,
        "meta_eccentricity": 0.00012848,
        "meta_inclination": 42.9987,
        "meta_ra_of_asc_node": 227.0101,
        "meta_arg_of_pericenter": 263.8792,
        "meta_mean_anomaly": 250.971,
        "meta_ephemeris_type": 0,
        "meta_classification_type": "U",
        "meta_norad_cat_id": 66601,
        "meta_element_set_no": 999,
        "meta_rev_at_epoch": 330,
        "meta_bstar": -0.020633463,
        "meta_mean_motion_dot": -0.02001033,
        "meta_mean_motion_ddot": 0,
        "tle_line1": "1 66601U 25270P   25340.91668981 -.02001033  00000+0 -20633-1 0  9992",
        "tle_line2": "2 66601  42.9987 227.0101 0001284 263.8792 250.9710 15.67149891  3306"
      },
      "geometry": {
        "type": "Point",
        "coordinates": [
          -30.818118691720617,
          41.805535303846845
        ]
      }
    },
    {
      "type": "Feature",
      "properties": {
        "norad_id": 66602,
        "name": "STARLINK-36050",
        "group": "last-30-days",
        "lat": 41.41134662082324,
        "lon": -28.315340326463247,
        "alt_km": 370.3419765369981,
        "timestamp": "2025-12-07T14:37:03.994858+00:00",
        "meta_object_name": "STARLINK-36050",
        "meta_object_id": "2025-270Q",
        "meta_epoch": "2025-12-06T22:00:01.999584",
        "meta_mean_motion": 15.67150368,
        "meta_eccentricity": 0.00013033,
        "meta_inclination": 42.9988,
        "meta_ra_of_asc_node": 227.0051,
        "meta_arg_of_pericenter": 261.6827,
        "meta_mean_anomaly": 255.0849,
        "meta_ephemeris_type": 0,
        "meta_classification_type": "U",
        "meta_norad_cat_id": 66602,
        "meta_element_set_no": 999,
        "meta_rev_at_epoch": 336,
        "meta_bstar": -0.020652472,
        "meta_mean_motion_dot": -0.02002701,
        "meta_mean_motion_ddot": 0,
        "tle_line1": "1 66602U 25270Q   25340.91668981 -.02002701  00000+0 -20652-1 0  9997",
        "tle_line2": "2 66602  42.9988 227.0051 0001303 261.6827 255.0849 15.67150368  3365"
      },
      "geometry": {
        "type": "Point",
        "coordinates": [
          -28.315340326463247,
          41.41134662082324
        ]
      }
    },
    {
      "type": "Feature",
      "properties": {
        "norad_id": 66603,
        "name": "STARLINK-36048",
        "group": "last-30-days",
        "lat": 40.96305494349102,
        "lon": -25.844336681721646,
        "alt_km": 370.52423297642963,
        "timestamp": "2025-12-07T14:37:03.994870+00:00",
        "meta_object_name": "STARLINK-36048",
        "meta_object_id": "2025-270R",
        "meta_epoch": "2025-12-06T22:00:01.999584",
        "meta_mean_motion": 15.67153024,
        "meta_eccentricity": 0.00013789,
        "meta_inclination": 42.9987,
        "meta_ra_of_asc_node": 226.9999,
        "meta_arg_of_pericenter": 268.4264,
        "meta_mean_anomaly": 250.2571,
        "meta_ephemeris_type": 0,
        "meta_classification_type": "U",
        "meta_norad_cat_id": 66603,
        "meta_element_set_no": 999,
        "meta_rev_at_epoch": 336,
        "meta_bstar": -0.02071167,
        "meta_mean_motion_dot": -0.02007996,
        "meta_mean_motion_ddot": 0,
        "tle_line1": "1 66603U 25270R   25340.91668981 -.02007996  00000+0 -20712-1 0  9996",
        "tle_line2": "2 66603  42.9987 226.9999 0001378 268.4264 250.2571 15.67153024  3367"
      },
      "geometry": {
        "type": "Point",
        "coordinates": [
          -25.844336681721646,
          40.96305494349102
        ]
      }
    },
    {
      "type": "Feature",
      "properties": {
        "norad_id": 66604,
        "name": "STARLINK-35977",
        "group": "last-30-days",
        "lat": 40.46210143472957,
        "lon": -23.404260745435668,
        "alt_km": 370.485765729627,
        "timestamp": "2025-12-07T14:37:03.994881+00:00",
        "meta_object_name": "STARLINK-35977",
        "meta_object_id": "2025-270S",
        "meta_epoch": "2025-12-06T22:00:01.999584",
        "meta_mean_motion": 15.67152369,
        "meta_eccentricity": 0.00012796,
        "meta_inclination": 42.999,
        "meta_ra_of_asc_node": 226.9953,
        "meta_arg_of_pericenter": 264.7196,
        "meta_mean_anomaly": 255.8805,
        "meta_ephemeris_type": 0,
        "meta_classification_type": "U",
        "meta_norad_cat_id": 66604,
        "meta_element_set_no": 999,
        "meta_rev_at_epoch": 346,
        "meta_bstar": -0.020689052,
        "meta_mean_motion_dot": -0.02005944,
        "meta_mean_motion_ddot": 0,
        "tle_line1": "1 66604U 25270S   25340.91668981 -.02005944  00000+0 -20689-1 0  9991",
        "tle_line2": "2 66604  42.9990 226.9953 0001279 264.7196 255.8805 15.67152369  3468"
      },
      "geometry": {
        "type": "Point",
        "coordinates": [
          -23.404260745435668,
          40.46210143472957
        ]
      }
    },
    {
      "type": "Feature",
      "properties": {
        "norad_id": 66605,
        "name": "STARLINK-36052",
        "group": "last-30-days",
        "lat": 39.90953852402154,
        "lon": -20.99964042531091,
        "alt_km": 370.5152533268574,
        "timestamp": "2025-12-07T14:37:03.994893+00:00",
        "meta_object_name": "STARLINK-36052",
        "meta_object_id": "2025-270T",
        "meta_epoch": "2025-12-06T22:00:01.999584",
        "meta_mean_motion": 15.67149501,
        "meta_eccentricity": 0.00012839,
        "meta_inclination": 42.999,
        "meta_ra_of_asc_node": 226.9908,
        "meta_arg_of_pericenter": 261.7947,
        "meta_mean_anomaly": 260.7249,
        "meta_ephemeris_type": 0,
        "meta_classification_type": "U",
        "meta_norad_cat_id": 66605,
        "meta_element_set_no": 999,
        "meta_rev_at_epoch": 346,
        "meta_bstar": -0.02064244,
        "meta_mean_motion_dot": -0.02001768,
        "meta_mean_motion_ddot": 0,
        "tle_line1": "1 66605U 25270T   25340.91668981 -.02001768  00000+0 -20642-1 0  9991",
        "tle_line2": "2 66605  42.9990 226.9908 0001283 261.7947 260.7249 15.67149501  3466"
      },
      "geometry": {
        "type": "Point",
        "coordinates": [
          -20.99964042531091,
          39.90953852402154
        ]
      }
    },
    {
      "type": "Feature",
      "properties": {
        "norad_id": 66606,
        "name": "STARLINK-36063",
        "group": "last-30-days",
        "lat": 38.66187038418959,
        "lon": -16.323493385878372,
        "alt_km": 370.6743799256001,
        "timestamp": "2025-12-07T14:37:03.994903+00:00",
        "meta_object_name": "STARLINK-36063",
        "meta_object_id": "2025-270U",
        "meta_epoch": "2025-12-06T22:00:01.999584",
        "meta_mean_motion": 15.67150626,
        "meta_eccentricity": 0.00012559,
        "meta_inclination": 42.9988,
        "meta_ra_of_asc_node": 226.981,
        "meta_arg_of_pericenter": 262.4363,
        "meta_mean_anomaly": 263.9164,
        "meta_ephemeris_type": 0,
        "meta_classification_type": "U",
        "meta_norad_cat_id": 66606,
        "meta_element_set_no": 999,
        "meta_rev_at_epoch": 346,
        "meta_bstar": -0.020671198,
        "meta_mean_motion_dot": -0.02004279,
        "meta_mean_motion_ddot": 0,
        "tle_line1": "1 66606U 25270U   25340.91668981 -.02004279  00000+0 -20671-1 0  9994",
        "tle_line2": "2 66606  42.9988 226.9810 0001255 262.4363 263.9164 15.67150626  3466"
      },
      "geometry": {
        "type": "Point",
        "coordinates": [
          -16.323493385878372,
          38.66187038418959
        ]
      }
    }
  ]
}